{"type": "FeatureCollection", "features": [ {"type": "Feature", "properties": {"norad_id": 43108, "name": "BEIDOU-3 M8 (C28)", "group": "beidou", "lat": 1.7655579876578242, "lon": -50.414440098718416, "alt_km": 21526.43102855291, "timestamp": "2025-12-25T20:42:38.953170+00:00", "meta": {"OBJECT_NAME": "BEIDOU-3 M8 (C28)", "OBJECT_ID": "2018-003B", "EPOCH": "2025-12-24T05:58:21.185184", "MEAN_MOTION": 1.86231107, "ECCENTRICITY": 0.00045887, "INCLINATION": 54.4794, "RA_OF_ASC_NODE": 308.398, "ARG_OF_PERICENTER": 279.3969, "MEAN_ANOMALY": 80.5568, "EPHEMERIS_TYPE": 0, "CLASSIFICATION_TYPE": "U", "NORAD_CAT_ID": 43108, "ELEMENT_SET_NO": 999, "REV_AT_EPOCH": 5410, "BSTAR": 0, "MEAN_MOTION_DOT": -5.4e-07, "MEAN_MOTION_DDOT": 0}, "tle": {"line1": "1 43108U 18003B   25358.24885631 -.00000054  00000+0  00000+0 0  9996", "line2": "2 43108  54.4794 308.3980 0004588 279.3969  80.5568  1.86231107 54103"}}, "geometry": {"type": "Point", "coordinates": [-50.414440098718416, 1.7655579876578242]}}, {"type": "Feature", "properties": {"norad_id": 43207, "name": "BEIDOU-3 M4 (C22)", "group": "beidou", "lat": 49.56647825408291, "lon": 119.8246761729311, "alt_km": 21516.81904663545, "timestamp": "2025-12-25T20:42:38.953181+00:00", "meta": {"OBJECT_NAME": "BEIDOU-3 M4 (C22)", "OBJECT_ID": "2018-018A", "EPOCH": "2025-12-24T16:34:51.783168", "MEAN_MOTION": 1.86231226, "ECCENTRICITY": 0.0004181, "INCLINATION": 56.4953, "RA_OF_ASC_NODE": 68.9094, "ARG_OF_PERICENTER": 3.1896, "MEAN_ANOMALY": 356.8673, "EPHEMERIS_TYPE": 0, "CLASSIFICATION_TYPE": "U", "NORAD_CAT_ID": 43207, "ELEMENT_SET_NO": 999, "REV_AT_EPOCH": 5349, "BSTAR": 0, "MEAN_MOTION_DOT": -2.4e-07, "MEAN_MOTION_DDOT": 0}, "tle": {"line1": "1 43207U 18018A   25358.69087712 -.00000024  00000+0  00000+0 0  9992", "line2": "2 43207  56.4953  68.9094 0004181   3.1896 356.8673  1.86231226 53497"}}, "geometry": {"type": "Point", "coordinates": [119.8246761729311, 49.56647825408291]}}, {"type": "Feature", "properties": {"norad_id": 43208, "name": "BEIDOU-3 M3 (C21)", "group": "beidou", "lat": 17.59290909249501, "lon": 81.00131673904029, "alt_km": 21518.373278596795, "timestamp": "2025-12-25T20:42:38.953192+00:00", "meta": {"OBJECT_NAME": "BEIDOU-3 M3 (C21)", "OBJECT_ID": "2018-018B", "EPOCH": "2025-12-24T05:17:24.775296", "MEAN_MOTION": 1.86231452, "ECCENTRICITY": 0.00071097, "INCLINATION": 56.4941, "RA_OF_ASC_NODE": 68.9291, "ARG_OF_PERICENTER": 313.8135, "MEAN_ANOMALY": 46.182, "EPHEMERIS_TYPE": 0, "CLASSIFICATION_TYPE": "U", "NORAD_CAT_ID": 43208, "ELEMENT_SET_NO": 999, "REV_AT_EPOCH": 5348, "BSTAR": 0, "MEAN_MOTION_DOT": -2.4e-07, "MEAN_MOTION_DDOT": 0}, "tle": {"line1": "1 43208U 18018B   25358.22042564 -.00000024  00000+0  00000+0 0  9998", "line2": "2 43208  56.4941  68.9291 0007109 313.8135  46.1820  1.86231452 53487"}}, "geometry": {"type": "Point", "coordinates": [81.00131673904029, 17.59290909249501]}}, {"type": "Feature", "properties": {"norad_id": 43245, "name": "BEIDOU-3 M9 (C29)", "group": "beidou", "lat": -42.49206124760997, "lon": 167.04209843373027, "alt_km": 21530.716667327895, "timestamp": "2025-12-25T20:42:38.953203+00:00", "meta": {"OBJECT_NAME": "BEIDOU-3 M9 (C29)", "OBJECT_ID": "2018-029A", "EPOCH": "2025-12-24T23:22:05.655648", "MEAN_MOTION": 1.86228303, "ECCENTRICITY": 0.00015566, "INCLINATION": 54.3546, "RA_OF_ASC_NODE": 306.0421, "ARG_OF_PERICENTER": 290.0356, "MEAN_ANOMALY": 69.9568, "EPHEMERIS_TYPE": 0, "CLASSIFICATION_TYPE": "U", "NORAD_CAT_ID": 43245, "ELEMENT_SET_NO": 999, "REV_AT_EPOCH": 5265, "BSTAR": 0, "MEAN_MOTION_DOT": -5.2e-07, "MEAN_MOTION_DDOT": 0}, "tle": {"line1": "1 43245U 18029A   25358.97367657 -.00000052  00000+0  00000+0 0  9997", "line2": "2 43245  54.3546 306.0421 0001556 290.0356  69.9568  1.86228303 52659"}}, "geometry": {"type": "Point", "coordinates": [167.04209843373027, -42.49206124760997]}}, {"type": "Feature", "properties": {"norad_id": 43246, "name": "BEIDOU-3 M10 (C30)", "group": "beidou", "lat": -53.2517939333166, "lon": -127.7434756901982, "alt_km": 21532.649170991685, "timestamp": "2025-12-25T20:42:38.953214+00:00", "meta": {"OBJECT_NAME": "BEIDOU-3 M10 (C30)", "OBJECT_ID": "2018-029B", "EPOCH": "2025-12-23T07:09:06.922656", "MEAN_MOTION": 1.86229257, "ECCENTRICITY": 0.00043036, "INCLINATION": 54.3535, "RA_OF_ASC_NODE": 306.127, "ARG_OF_PERICENTER": 3.3658, "MEAN_ANOMALY": 356.6419, "EPHEMERIS_TYPE": 0, "CLASSIFICATION_TYPE": "U", "NORAD_CAT_ID": 43246, "ELEMENT_SET_NO": 999, "REV_AT_EPOCH": 5260, "BSTAR": 0, "MEAN_MOTION_DOT": -5.3e-07, "MEAN_MOTION_DDOT": 0}, "tle": {"line1": "1 43246U 18029B   25357.29799679 -.00000053  00000+0  00000+0 0  9996", "line2": "2 43246  54.3535 306.1270 0004303   3.3658 356.6419  1.86229257 52609"}}, "geometry": {"type": "Point", "coordinates": [-127.7434756901982, -53.2517939333166]}}, {"type": "Feature", "properties": {"norad_id": 43539, "name": "BEIDOU-2 IGSO-7 (C16)", "group": "beidou", "lat": -6.755613729367548, "lon": 159.81029923105854, "alt_km": 35965.432461190314, "timestamp": "2025-12-25T20:42:38.953226+00:00", "meta": {"OBJECT_NAME": "BEIDOU-2 IGSO-7 (C16)", "OBJECT_ID": "2018-057A", "EPOCH": "2025-12-23T21:03:51.666912", "MEAN_MOTION": 1.00254881, "ECCENTRICITY": 0.00930582, "INCLINATION": 55.1784, "RA_OF_ASC_NODE": 164.5741, "ARG_OF_PERICENTER": 235.1099, "MEAN_ANOMALY": 119.1175, "EPHEMERIS_TYPE": 0, "CLASSIFICATION_TYPE": "U", "NORAD_CAT_ID": 43539, "ELEMENT_SET_NO": 999, "REV_AT_EPOCH": 2736, "BSTAR": 0, "MEAN_MOTION_DOT": -6.1e-07, "MEAN_MOTION_DDOT": 0}, "tle": {"line1": "1 43539U 18057A   25357.87768133 -.00000061  00000+0  00000+0 0  9996", "line2": "2 43539  55.1784 164.5741 0093058 235.1099 119.1175  1.00254881 27360"}}, "geometry": {"type": "Point", "coordinates": [159.81029923105854, -6.755613729367548]}}, {"type": "Feature", "properties": {"norad_id": 43581, "name": "BEIDOU-3 M5 (C23)", "group": "beidou", "lat": 38.89179724298196, "lon": -27.586075872756854, "alt_km": 21526.822230226408, "timestamp": "2025-12-25T20:42:38.953237+00:00", "meta": {"OBJECT_NAME": "BEIDOU-3 M5 (C23)", "OBJECT_ID": "2018-062A", "EPOCH": "2025-12-24T01:25:43.982112", "MEAN_MOTION": 1.86228769, "ECCENTRICITY": 0.0001922, "INCLINATION": 54.09, "RA_OF_ASC_NODE": 188.2582, "ARG_OF_PERICENTER": 1.0455, "MEAN_ANOMALY": 358.9913, "EPHEMERIS_TYPE": 0, "CLASSIFICATION_TYPE": "U", "NORAD_CAT_ID": 43581, "ELEMENT_SET_NO": 999, "REV_AT_EPOCH": 5037, "BSTAR": 0, "MEAN_MOTION_DOT": 1.01e-06, "MEAN_MOTION_DDOT": 0}, "tle": {"line1": "1 43581U 18062A   25358.05953683  .00000101  00000+0  00000+0 0  9990", "line2": "2 43581  54.0900 188.2582 0001922   1.0455 358.9913  1.86228769 50376"}}, "geometry": {"type": "Point", "coordinates": [-27.586075872756854, 38.89179724298196]}}, {"type": "Feature", "properties": {"norad_id": 43582, "name": "BEIDOU-3 M6 (C24)", "group": "beidou", "lat": -32.13262227122536, "lon": 35.273628673422785, "alt_km": 21553.929350920665, "timestamp": "2025-12-25T20:42:38.953248+00:00", "meta": {"OBJECT_NAME": "BEIDOU-3 M6 (C24)", "OBJECT_ID": "2018-062B", "EPOCH": "2025-12-23T22:08:28.739040", "MEAN_MOTION": 1.86229712, "ECCENTRICITY": 0.00078704, "INCLINATION": 54.0895, "RA_OF_ASC_NODE": 188.252, "ARG_OF_PERICENTER": 49.2706, "MEAN_ANOMALY": 310.8346, "EPHEMERIS_TYPE": 0, "CLASSIFICATION_TYPE": "U", "NORAD_CAT_ID": 43582, "ELEMENT_SET_NO": 999, "REV_AT_EPOCH": 5037, "BSTAR": 0, "MEAN_MOTION_DOT": 1e-06, "MEAN_MOTION_DDOT": 0}, "tle": {"line1": "1 43582U 18062B   25357.92255485  .00000100  00000+0  00000+0 0  9990", "line2": "2 43582  54.0895 188.2520 0007870  49.2706 310.8346  1.86229712 50379"}}, "geometry": {"type": "Point", "coordinates": [35.273628673422785, -32.13262227122536]}}, {"type": "Feature", "properties": {"norad_id": 43602, "name": "BEIDOU-3 M12 (C26)", "group": "beidou", "lat": -53.49317341256873, "lon": 84.35185324228674, "alt_km": 21553.644474404377, "timestamp": "2025-12-25T20:42:38.953259+00:00", "meta": {"OBJECT_NAME": "BEIDOU-3 M12 (C26)", "OBJECT_ID": "2018-067A", "EPOCH": "2025-12-24T22:25:33.195936", "MEAN_MOTION": 1.86227842, "ECCENTRICITY": 0.00092394, "INCLINATION": 54.1837, "RA_OF_ASC_NODE": 186.9493, "ARG_OF_PERICENTER": 41.7428, "MEAN_ANOMALY": 318.3597, "EPHEMERIS_TYPE": 0, "CLASSIFICATION_TYPE": "U", "NORAD_CAT_ID": 43602, "ELEMENT_SET_NO": 999, "REV_AT_EPOCH": 4987, "BSTAR": 0, "MEAN_MOTION_DOT": 1.08e-06, "MEAN_MOTION_DDOT": 0}, "tle": {"line1": "1 43602U 18067A   25358.93441199  .00000108  00000+0  00000+0 0  9997", "line2": "2 43602  54.1837 186.9493 0009239  41.7428 318.3597  1.86227842 49878"}}, "geometry": {"type": "Point", "coordinates": [84.35185324228674, -53.49317341256873]}}, {"type": "Feature", "properties": {"norad_id": 43603, "name": "BEIDOU-3 M11 (C25)", "group": "beidou", "lat": 6.102372950391187, "lon": 2.4537009296015135, "alt_km": 21538.871542514957, "timestamp": "2025-12-25T20:42:38.953271+00:00", "meta": {"OBJECT_NAME": "BEIDOU-3 M11 (C25)", "OBJECT_ID": "2018-067B", "EPOCH": "2025-12-24T12:46:04.310976", "MEAN_MOTION": 1.86227356, "ECCENTRICITY": 0.00056287, "INCLINATION": 54.181, "RA_OF_ASC_NODE": 186.927, "ARG_OF_PERICENTER": 37.873, "MEAN_ANOMALY": 322.1992, "EPHEMERIS_TYPE": 0, "CLASSIFICATION_TYPE": "U", "NORAD_CAT_ID": 43603, "ELEMENT_SET_NO": 999, "REV_AT_EPOCH": 4989, "BSTAR": 0, "MEAN_MOTION_DOT": 1.05e-06, "MEAN_MOTION_DDOT": 0}, "tle": {"line1": "1 43603U 18067B   25358.53199434  .00000105  00000+0  00000+0 0  9993", "line2": "2 43603  54.1810 186.9270 0005628  37.8730 322.1992  1.86227356 49897"}}, "geometry": {"type": "Point", "coordinates": [2.4537009296015135, 6.102372950391187]}}]}